GLOBALSTAR M024         
1 25883U 99043A   24209.88143550  .00000009  00000+0  26058-2 0  9993
2 25883  52.0039  32.3643 0000749 322.4678 134.4629 11.10159546 78849
GLOBALSTAR M027         
1 25884U 99043B   24209.91810061 -.00000092  00000+0 -10891-2 0  9998
2 25884  52.0211 101.0773 0020724 186.7172 173.3346 11.04369081105417
GLOBALSTAR M054         
1 25885U 99043C   24209.67795562 -.00000019  00000+0  13333-2 0  9992
2 25885  52.0137 283.3735 0004639 345.1132 175.8904 11.39210822 82069
GLOBALSTAR M053         
1 25886U 99043D   24209.75868391 -.00000054  00000+0  42272-3 0  9997
2 25886  51.9940 212.2722 0003798 253.6641 277.2346 11.27657370 82843
GLOBALSTAR M058         
1 25907U 99049A   24209.52875170 -.00000076  00000+0  11461-3 0  9995
2 25907  51.9925 256.0888 0001959  13.7623 346.3265 11.93179101502783
GLOBALSTAR M050         
1 25908U 99049B   24209.73846347 -.00000002  00000+0  97329-3 0  9999
2 25908  51.9992 287.4447 0009516 107.2340  72.6517 12.07437251108992
GLOBALSTAR M033         
1 25909U 99049C   24209.90544898 -.00000104  00000+0 -11498-3 0  9992
2 25909  51.9889 181.2169 0012848 320.3435  39.6472 12.20273811496151
GLOBALSTAR M055         
1 25910U 99049D   24209.94659798 -.00000072  00000+0  19407-3 0  9995
2 25910  51.9986 207.6274 0007022 178.7800 181.3070 12.29405245128406
